SL-8 R/B,1 11574U 79089B   26086.29337699  .00000284  00000+0  93951-4 0  9995,2 11574  74.0683  58.4535 0016813 228.9491 131.0213 14.42360790438644,45.858290601721485,-153.63397164456512,758730.8315604075
SL-14 R/B,1 11672U 80005B   26086.04296707  .00000558  00000+0  53817-4 0  9992,2 11672  82.5114 290.7718 0017209 104.2777 256.0354 14.90949324479078,74.28489104364392,-56.64460379285711,596971.3914232397
SL-8 R/B,1 12139U 81003B   26086.01681612  .00024489  00000+0  61476-3 0  9998,2 12139  82.9341 273.9921 0261028 118.3279 244.4551 15.11721395317290,-76.91937545303543,110.92337136798743,699401.9574409302
SL-3 R/B,1 12465U 81046B   26086.23786731  .00011450  00000+0  26265-3 0  9990,2 12465  81.2287 268.6614 0018302 320.2695  39.7207 15.42412894441133,15.992559254715934,71.15004750462056,452717.87340072414
SL-3 R/B,1 12904U 81103B   26086.26601811  .00004924  00000+0  21684-3 0  9998,2 12904  81.1605 192.8144 0012697 223.6618 136.3610 15.21578905975904,-11.772761826413431,176.01766210935446,511452.6189490232
SL-3 R/B,1 13068U 82013B   26086.26700743  .00003410  00000+0  14642-3 0  9990,2 13068  81.1742 140.1683 0023450 119.7192 240.6378 15.22171579407023,-16.5728096383704,122.5861809981616,517395.0815825449
SL-3 R/B,1 13154U 82039B   26086.28189992  .00002472  00000+0  14864-3 0  9996,2 13154  81.1569 195.6776 0028739 266.3809  93.4129 15.10176034384292,-69.14315958868308,24.711794523547475,542337.146196995
SL-3 R/B,1 13403U 82079B   26086.25243498  .00005996  00000+0  23686-3 0  9992,2 13403  81.1483 172.3406 0025538 106.9839 253.4197 15.25030662380372,64.71478600682232,176.51145544835038,488355.09443178953
SL-14 R/B,1 13553U 82092B   26086.21223664  .00000416  00000+0  43937-4 0  9996,2 13553  82.5661 125.0077 0018954 240.8474 190.1791 14.86681747331530,-45.49809675274703,102.48181718662983,622353.7572247701
SL-3 R/B,1 13819U 83010B   26086.22888776  .00014269  00000+0  28114-3 0  9994,2 13819  81.1053 340.7367 0016173 351.6620   8.4353 15.46938369360650,-38.26106765929828,152.77781250859752,447656.59647249116
SL-3 R/B,1 14208U 83075B   26086.24664381  .00010475  00000+0  27286-3 0  9998,2 14208  97.6144  91.4945 0022084 161.9101 198.2935 15.38819492332853,67.2948965622649,-84.33233508315394,451397.5299482697
COSMOS 1536,1 14699U 84013A   26086.25151803  .00006097  00000+0  24948-3 0  9993,2 14699  82.5417  90.3853 0013154 214.0989 145.9405 15.24055083275299,68.67970835974832,94.9537827318618,512752.14834024815
SL-14 R/B,1 14820U 84027B   26085.86408592  .00000563  00000+0  61546-4 0  9998,2 14820  82.5412 228.9032 0016485 277.2055  82.7287 14.85993908250183,-55.91715072576699,-157.4573856759088,622055.76982166
SL-8 R/B,1 15483U 85006B   26086.32288163  .00000316  00000+0  11338-3 0  9993,2 15483  74.0448 228.6990 0017749 141.4313 237.1852 14.37795720156567,-5.83714409135417,-147.98579228437995,779969.1888778562
SL-12 R/B(2),1 15772U 85042D   26086.28884750  .00000072  00000+0  53546-4 0  9990,2 15772  71.1083  50.5436 0032856  98.9794   4.4424 14.21987214116899,-56.764979652432594,-113.3032164570242,859030.3929672269
SL-14 R/B,1 15945U 85069B   26086.24754110  .00000498  00000+0  53396-4 0  9998,2 15945  82.5305   8.4274 0019949 131.0027 229.2920 14.86451660175448,53.48540445286031,3.6656938900433365,614435.5075253155
SL-16 R/B,1 16182U 85097B   26086.29091183  .00000001  00000+0  24709-4 0  9998,2 16182  71.0008 103.4970 0009489 239.1726 203.3796 14.16603535 89720,-24.344299143544863,-82.72874908629879,839700.9188975936
